{"type": "FeatureCollection", "features": [ {"type": "Feature", "properties": {"norad_id": 66850, "name": "STARLINK-36105", "group": "last-30-days", "lat": 38.618890802889126, "lon": 120.89973151385891, "alt_km": 366.6468919067938, "timestamp": "2025-12-22T15:43:47.686042+00:00", "meta": {"OBJECT_NAME": "STARLINK-36105", "OBJECT_ID": "2025-281C", "EPOCH": "2025-12-22T06:00:02.000160", "MEAN_MOTION": 15.67246973, "ECCENTRICITY": 0.00013557, "INCLINATION": 43.0001, "RA_OF_ASC_NODE": 64.3181, "ARG_OF_PERICENTER": 266.9765, "MEAN_ANOMALY": 30.6039, "EPHEMERIS_TYPE": 0, "CLASSIFICATION_TYPE": "U", "NORAD_CAT_ID": 66850, "ELEMENT_SET_NO": 999, "REV_AT_EPOCH": 292, "BSTAR": -0.020419798, "MEAN_MOTION_DOT": -0.0198983, "MEAN_MOTION_DDOT": 0}, "tle": {"line1": "1 66850U 25281C   25356.25002315 -.01989830  00000+0 -20420-1 0  9990", "line2": "2 66850  43.0001  64.3181 0001355 266.9765  30.6039 15.67246973  2927"}}, "geometry": {"type": "Point", "coordinates": [120.89973151385891, 38.618890802889126]}}, {"type": "Feature", "properties": {"norad_id": 66851, "name": "STARLINK-36094", "group": "last-30-days", "lat": 39.26967697677723, "lon": 123.2150878837622, "alt_km": 366.6151009004252, "timestamp": "2025-12-22T15:43:47.686052+00:00", "meta": {"OBJECT_NAME": "STARLINK-36094", "OBJECT_ID": "2025-281D", "EPOCH": "2025-12-22T06:00:02.000160", "MEAN_MOTION": 15.67246209, "ECCENTRICITY": 0.0001453, "INCLINATION": 43.0003, "RA_OF_ASC_NODE": 64.3129, "ARG_OF_PERICENTER": 266.7399, "MEAN_ANOMALY": 32.7537, "EPHEMERIS_TYPE": 0, "CLASSIFICATION_TYPE": "U", "NORAD_CAT_ID": 66851, "ELEMENT_SET_NO": 999, "REV_AT_EPOCH": 292, "BSTAR": -0.020351781, "MEAN_MOTION_DOT": -0.01984017, "MEAN_MOTION_DDOT": 0}, "tle": {"line1": "1 66851U 25281D   25356.25002315 -.01984017  00000+0 -20352-1 0  9997", "line2": "2 66851  43.0003  64.3129 0001453 266.7399  32.7537 15.67246209  2920"}}, "geometry": {"type": "Point", "coordinates": [123.2150878837622, 39.26967697677723]}}, {"type": "Feature", "properties": {"norad_id": 66852, "name": "STARLINK-35992", "group": "last-30-days", "lat": 39.87337466772774, "lon": 125.57306234563818, "alt_km": 366.4381440425759, "timestamp": "2025-12-22T15:43:47.686067+00:00", "meta": {"OBJECT_NAME": "STARLINK-35992", "OBJECT_ID": "2025-281E", "EPOCH": "2025-12-22T06:00:02.000160", "MEAN_MOTION": 15.67246351, "ECCENTRICITY": 0.00012956, "INCLINATION": 43.0003, "RA_OF_ASC_NODE": 64.3084, "ARG_OF_PERICENTER": 266.4483, "MEAN_ANOMALY": 34.9638, "EPHEMERIS_TYPE": 0, "CLASSIFICATION_TYPE": "U", "NORAD_CAT_ID": 66852, "ELEMENT_SET_NO": 999, "REV_AT_EPOCH": 292, "BSTAR": -0.020375544, "MEAN_MOTION_DOT": -0.01985944, "MEAN_MOTION_DDOT": 0}, "tle": {"line1": "1 66852U 25281E   25356.25002315 -.01985944  00000+0 -20376-1 0  9994", "line2": "2 66852  43.0003  64.3084 0001295 266.4483  34.9638 15.67246351  2920"}}, "geometry": {"type": "Point", "coordinates": [125.57306234563818, 39.87337466772774]}}, {"type": "Feature", "properties": {"norad_id": 66853, "name": "STARLINK-35986", "group": "last-30-days", "lat": 40.428728209788886, "lon": 127.9724983847273, "alt_km": 366.3895922042784, "timestamp": "2025-12-22T15:43:47.686078+00:00", "meta": {"OBJECT_NAME": "STARLINK-35986", "OBJECT_ID": "2025-281F", "EPOCH": "2025-12-22T06:00:02.000160", "MEAN_MOTION": 15.67247807, "ECCENTRICITY": 0.00013283, "INCLINATION": 43.0004, "RA_OF_ASC_NODE": 64.3037, "ARG_OF_PERICENTER": 266.7172, "MEAN_ANOMALY": 36.6123, "EPHEMERIS_TYPE": 0, "CLASSIFICATION_TYPE": "U", "NORAD_CAT_ID": 66853, "ELEMENT_SET_NO": 999, "REV_AT_EPOCH": 292, "BSTAR": -0.020407675, "MEAN_MOTION_DOT": -0.01988829, "MEAN_MOTION_DDOT": 0}, "tle": {"line1": "1 66853U 25281F   25356.25002315 -.01988829  00000+0 -20408-1 0  9996", "line2": "2 66853  43.0004  64.3037 0001328 266.7172  36.6123 15.67247807  2920"}}, "geometry": {"type": "Point", "coordinates": [127.9724983847273, 40.428728209788886]}}, {"type": "Feature", "properties": {"norad_id": 66854, "name": "STARLINK-36087", "group": "last-30-days", "lat": 40.932313099422565, "lon": 130.4050336926095, "alt_km": 366.2357384996885, "timestamp": "2025-12-22T15:43:47.686088+00:00", "meta": {"OBJECT_NAME": "STARLINK-36087", "OBJECT_ID": "2025-281G", "EPOCH": "2025-12-22T06:00:02.000160", "MEAN_MOTION": 15.67239903, "ECCENTRICITY": 0.00011626, "INCLINATION": 43.0002, "RA_OF_ASC_NODE": 64.2984, "ARG_OF_PERICENTER": 261.3626, "MEAN_ANOMALY": 43.8874, "EPHEMERIS_TYPE": 0, "CLASSIFICATION_TYPE": "U", "NORAD_CAT_ID": 66854, "ELEMENT_SET_NO": 999, "REV_AT_EPOCH": 292, "BSTAR": -0.020294356, "MEAN_MOTION_DOT": -0.01978415, "MEAN_MOTION_DDOT": 0}, "tle": {"line1": "1 66854U 25281G   25356.25002315 -.01978415  00000+0 -20294-1 0  9990", "line2": "2 66854  43.0002  64.2984 0001162 261.3626  43.8874 15.67239903  2921"}}, "geometry": {"type": "Point", "coordinates": [130.4050336926095, 40.932313099422565]}}, {"type": "Feature", "properties": {"norad_id": 66855, "name": "STARLINK-36090", "group": "last-30-days", "lat": 41.38509288714167, "lon": 132.88077699533983, "alt_km": 366.2122215599966, "timestamp": "2025-12-22T15:43:47.686098+00:00", "meta": {"OBJECT_NAME": "STARLINK-36090", "OBJECT_ID": "2025-281H", "EPOCH": "2025-12-22T06:00:02.000160", "MEAN_MOTION": 15.67246566, "ECCENTRICITY": 0.00012303, "INCLINATION": 43.0001, "RA_OF_ASC_NODE": 64.2938, "ARG_OF_PERICENTER": 265.0939, "MEAN_ANOMALY": 42.0719, "EPHEMERIS_TYPE": 0, "CLASSIFICATION_TYPE": "U", "NORAD_CAT_ID": 66855, "ELEMENT_SET_NO": 999, "REV_AT_EPOCH": 279, "BSTAR": -0.020410563, "MEAN_MOTION_DOT": -0.01988913, "MEAN_MOTION_DDOT": 0}, "tle": {"line1": "1 66855U 25281H   25356.25002315 -.01988913  00000+0 -20411-1 0  9996", "line2": "2 66855  43.0001  64.2938 0001230 265.0939  42.0719 15.67246566  2791"}}, "geometry": {"type": "Point", "coordinates": [132.88077699533983, 41.38509288714167]}}, {"type": "Feature", "properties": {"norad_id": 66856, "name": "STARLINK-36072", "group": "last-30-days", "lat": 41.78351527041693, "lon": 135.3861356263502, "alt_km": 366.1718265652553, "timestamp": "2025-12-22T15:43:47.686108+00:00", "meta": {"OBJECT_NAME": "STARLINK-36072", "OBJECT_ID": "2025-281J", "EPOCH": "2025-12-22T06:00:02.000160", "MEAN_MOTION": 15.67244028, "ECCENTRICITY": 0.00012774, "INCLINATION": 43, "RA_OF_ASC_NODE": 64.2887, "ARG_OF_PERICENTER": 268.2574, "MEAN_ANOMALY": 40.8261, "EPHEMERIS_TYPE": 0, "CLASSIFICATION_TYPE": "U", "NORAD_CAT_ID": 66856, "ELEMENT_SET_NO": 999, "REV_AT_EPOCH": 292, "BSTAR": -0.020377984, "MEAN_MOTION_DOT": -0.01985973, "MEAN_MOTION_DDOT": 0}, "tle": {"line1": "1 66856U 25281J   25356.25002315 -.01985973  00000+0 -20378-1 0  9992", "line2": "2 66856  43.0000  64.2887 0001277 268.2574  40.8261 15.67244028  2929"}}, "geometry": {"type": "Point", "coordinates": [135.3861356263502, 41.78351527041693]}}, {"type": "Feature", "properties": {"norad_id": 66857, "name": "STARLINK-36083", "group": "last-30-days", "lat": 42.12676467841216, "lon": 137.91872311285243, "alt_km": 366.1013634826131, "timestamp": "2025-12-22T15:43:47.686118+00:00", "meta": {"OBJECT_NAME": "STARLINK-36083", "OBJECT_ID": "2025-281K", "EPOCH": "2025-12-22T06:00:02.000160", "MEAN_MOTION": 15.67245462, "ECCENTRICITY": 0.00012469, "INCLINATION": 43.0003, "RA_OF_ASC_NODE": 64.2838, "ARG_OF_PERICENTER": 267.1774, "MEAN_ANOMALY": 43.8184, "EPHEMERIS_TYPE": 0, "CLASSIFICATION_TYPE": "U", "NORAD_CAT_ID": 66857, "ELEMENT_SET_NO": 999, "REV_AT_EPOCH": 292, "BSTAR": -0.020344125, "MEAN_MOTION_DOT": -0.01983148, "MEAN_MOTION_DDOT": 0}, "tle": {"line1": "1 66857U 25281K   25356.25002315 -.01983148  00000+0 -20344-1 0  9998", "line2": "2 66857  43.0003  64.2838 0001246 267.1774  43.8184 15.67245462  2925"}}, "geometry": {"type": "Point", "coordinates": [137.91872311285243, 42.12676467841216]}}, {"type": "Feature", "properties": {"norad_id": 66858, "name": "STARLINK-35118", "group": "last-30-days", "lat": 42.413301674210835, "lon": 140.47810208205146, "alt_km": 366.0973653812043, "timestamp": "2025-12-22T15:43:47.686130+00:00", "meta": {"OBJECT_NAME": "STARLINK-35118", "OBJECT_ID": "2025-281L", "EPOCH": "2025-12-22T06:00:02.000160", "MEAN_MOTION": 15.67247867, "ECCENTRICITY": 0.00012751, "INCLINATION": 43.0002, "RA_OF_ASC_NODE": 64.2787, "ARG_OF_PERICENTER": 265.6505, "MEAN_ANOMALY": 47.2626, "EPHEMERIS_TYPE": 0, "CLASSIFICATION_TYPE": "U", "NORAD_CAT_ID": 66858, "ELEMENT_SET_NO": 999, "REV_AT_EPOCH": 270, "BSTAR": -0.020392875, "MEAN_MOTION_DOT": -0.01987524, "MEAN_MOTION_DDOT": 0}, "tle": {"line1": "1 66858U 25281L   25356.25002315 -.01987524  00000+0 -20393-1 0  9995", "line2": "2 66858  43.0002  64.2787 0001275 265.6505  47.2626 15.67247867  2701"}}, "geometry": {"type": "Point", "coordinates": [140.47810208205146, 42.413301674210835]}}, {"type": "Feature", "properties": {"norad_id": 66859, "name": "STARLINK-35646", "group": "last-30-days", "lat": 42.64223987011773, "lon": 143.0598616198238, "alt_km": 366.0433475181344, "timestamp": "2025-12-22T15:43:47.686140+00:00", "meta": {"OBJECT_NAME": "STARLINK-35646", "OBJECT_ID": "2025-281M", "EPOCH": "2025-12-22T06:00:02.000160", "MEAN_MOTION": 15.672461, "ECCENTRICITY": 0.0001274, "INCLINATION": 43.0001, "RA_OF_ASC_NODE": 64.2742, "ARG_OF_PERICENTER": 269.9185, "MEAN_ANOMALY": 44.9102, "EPHEMERIS_TYPE": 0, "CLASSIFICATION_TYPE": "U", "NORAD_CAT_ID": 66859, "ELEMENT_SET_NO": 999, "REV_AT_EPOCH": 292, "BSTAR": -0.020349358, "MEAN_MOTION_DOT": -0.01983664, "MEAN_MOTION_DDOT": 0}, "tle": {"line1": "1 66859U 25281M   25356.25002315 -.01983664  00000+0 -20349-1 0  9998", "line2": "2 66859  43.0001  64.2742 0001274 269.9185  44.9102 15.67246100  2928"}}, "geometry": {"type": "Point", "coordinates": [143.0598616198238, 42.64223987011773]}}]}